NORAD_CAT_ID,OBJECT_NAME,OBJECT_TYPE,EPOCH,MEAN_MOTION,ECCENTRICITY,INCLINATION,RA_OF_ASC_NODE,ARG_OF_PERICENTER,MEAN_ANOMALY,BSTAR,MEAN_MOTION_DOT,MEAN_MOTION_DDOT,TLE_LINE0,TLE_LINE1,TLE_LINE2,SEMIMAJOR_AXIS,PERIOD,APOGEE,PERIGEE,DECAYED
52997.0,STARLINK-4301,PAYLOAD,2024-05-31 03:48:35,15.3308003,0.00052,53.2419,75.3976,78.4493,281.7093,0.00050941,0.00016175,0.0,0 STARLINK-4301,1 52997U 22076M   24152.15874297  .00016175  00000-0  50941-3 0  9998,2 52997  53.2419  75.3976 0005200  78.4493 281.7093 15.33080030105758,6844.766,93.929,470.191,463.072,0.0
52997.0,STARLINK-4301,PAYLOAD,2024-05-31 22:35:06,15.33098369,0.0005172,53.2417,71.7545,81.4257,278.7332,0.00043161,0.00013651,0.0,0 STARLINK-4301,1 52997U 22076M   24152.94104194  .00013651  00000-0  43161-3 0  9999,2 52997  53.2417  71.7545 0005172  81.4257 278.7332 15.33098369105877,6844.712,93.927,470.117,463.037,0.0
52997.0,STARLINK-4301,PAYLOAD,2024-06-01 00:08:58,15.33100756,0.0005179,53.2416,71.4511,81.5753,278.5837,0.0004451,0.00014091,0.0,0 STARLINK-4301,1 52997U 22076M   24153.00623302  .00014091  00000-0  44510-3 0  9992,2 52997  53.2416  71.4511 0005179  81.5753 278.5837 15.33100756106351,6844.705,93.927,470.114,463.025,0.0
52997.0,STARLINK-4301,PAYLOAD,2024-06-01 11:06:05,15.33112613,0.0005201,53.2419,69.3254,82.2687,277.8906,0.00042516,0.00013447,0.0,0 STARLINK-4301,1 52997U 22076M   24153.46256863  .00013447  00000-0  42516-3 0  9994,2 52997  53.2419  69.3254 0005201  82.2687 277.8906 15.33112613105953,6844.669,93.927,470.094,462.974,0.0
52997.0,STARLINK-4301,PAYLOAD,2024-06-02 01:10:57,15.33130022,0.0005183,53.242,66.5935,83.5123,276.647,0.00046434,0.00014731,0.0,0 STARLINK-4301,1 52997U 22076M   24154.04928065  .00014731  00000-0  46434-3 0  9999,2 52997  53.2420  66.5935 0005183  83.5123 276.6470 15.33130022106518,6844.617,93.925,470.03,462.935,0.0
52997.0,STARLINK-4301,PAYLOAD,2024-06-02 18:23:33,15.33148072,0.0005149,53.2422,63.254,85.0293,275.1298,0.00043242,0.00013699,0.0,0 STARLINK-4301,1 52997U 22076M   24154.76636480  .00013699  00000-0  43242-3 0  9991,2 52997  53.2422  63.2540 0005149  85.0293 275.1298 15.33148072106159,6844.564,93.924,469.953,462.904,0.0
52997.0,STARLINK-4301,PAYLOAD,2024-06-03 00:39:03,15.33156619,0.0005094,53.2423,62.0402,87.1147,273.044,0.00046164,0.00014656,0.0,0 STARLINK-4301,1 52997U 22076M   24155.02711992  .00014656  00000-0  46164-3 0  9993,2 52997  53.2423  62.0402 0005094  87.1147 273.0440 15.33156619106190,6844.538,93.924,469.89,462.917,0.0
52997.0,STARLINK-4301,PAYLOAD,2024-06-03 17:51:38,15.33179861,0.0005071,53.2427,58.7009,88.8162,271.3422,0.00051754,0.00016492,0.0,0 STARLINK-4301,1 52997U 22076M   24155.74419031  .00016492  00000-0  51754-3 0  9992,2 52997  53.2427  58.7009 0005071  88.8162 271.3422 15.33179861106778,6844.469,93.922,469.805,462.863,0.0
52997.0,STARLINK-4301,PAYLOAD,2024-06-04 03:14:51,15.33194713,0.0005066,53.2431,56.8797,89.9121,270.2463,0.00057157,0.00018266,0.0,0 STARLINK-4301,1 52997U 22076M   24156.13531470  .00018266  00000-0  57157-3 0  9992,2 52997  53.2431  56.8797 0005066  89.9121 270.2463 15.33194713106368,6844.425,93.922,469.757,462.823,0.0
52997.0,STARLINK-4301,PAYLOAD,2024-06-05 02:42:52,15.33230312,0.0005087,53.2436,52.3261,92.1866,267.972,0.00058971,0.0001888,0.0,0 STARLINK-4301,1 52997U 22076M   24157.11310981  .00018880  00000-0  58971-3 0  9990,2 52997  53.2436  52.3261 0005087  92.1866 267.9720 15.33230312106988,6844.319,93.919,469.666,462.702,0.0
52997.0,STARLINK-4301,PAYLOAD,2024-06-05 23:03:08,15.33259536,0.0005081,53.2441,48.3792,94.1898,265.9686,0.00054491,0.00017431,0.0,0 STARLINK-4301,1 52997U 22076M   24157.96051378  .00017431  00000-0  54491-3 0  9999,2 52997  53.2441  48.3792 0005081  94.1898 265.9686 15.33259536106640,6844.232,93.918,469.575,462.619,0.0
52997.0,STARLINK-4301,PAYLOAD,2024-06-06 10:00:11,15.33275934,0.0005057,53.244,46.254,95.1043,265.0538,0.00054498,0.00017442,0.0,0 STARLINK-4301,1 52997U 22076M   24158.41680114  .00017442  00000-0  54498-3 0  9995,2 52997  53.2440  46.2540 0005057  95.1043 265.0538 15.33275934107180,6844.183,93.917,469.509,462.587,0.0
52997.0,STARLINK-4301,PAYLOAD,2024-06-07 09:28:08,15.33308705,0.0005021,53.2435,41.6994,97.6039,262.5534,0.00047617,0.00015204,0.0,0 STARLINK-4301,1 52997U 22076M   24159.39454335  .00015204  00000-0  47617-3 0  9996,2 52997  53.2435  41.6994 0005021  97.6039 262.5534 15.33308705106864,6844.086,93.915,469.387,462.514,0.0
52997.0,STARLINK-4301,PAYLOAD,2024-06-07 15:43:35,15.33320286,0.0004891,53.2431,40.4847,98.7451,261.4106,0.00053456,0.00017125,0.0,0 STARLINK-4301,1 52997U 22076M   24159.65527028  .00017125  00000-0  53456-3 0  9997,2 52997  53.2431  40.4847 0004891  98.7451 261.4106 15.33320286107376,6844.051,93.914,469.264,462.569,0.0
52997.0,STARLINK-4301,PAYLOAD,2024-06-07 21:59:02,15.3333299,0.0004895,53.2433,39.2704,99.0611,261.0946,0.00060182,0.0001934,0.0,0 STARLINK-4301,1 52997U 22076M   24159.91599567  .00019340  00000-0  60182-3 0  9998,2 52997  53.2433  39.2704 0004895  99.0611 261.0946 15.33332990106947,6844.013,93.913,469.229,462.528,0.0
52997.0,STARLINK-4301,PAYLOAD,2024-06-08 08:56:03,15.33348633,0.0004914,53.2428,37.1452,99.7812,260.3746,0.00057755,0.00018552,0.0,0 STARLINK-4301,1 52997U 22076M   24160.37226207  .00018552  00000-0  57755-3 0  9994,2 52997  53.2428  37.1452 0004914  99.7812 260.3746 15.33348633107010,6843.967,93.912,469.195,462.469,0.0
52997.0,STARLINK-4301,PAYLOAD,2024-06-09 00:34:38,15.33371075,0.0004904,53.2426,34.1089,101.2901,258.8654,0.00052634,0.00016882,0.0,0 STARLINK-4301,1 52997U 22076M   24161.02406219  .00016882  00000-0  52634-3 0  9995,2 52997  53.2426  34.1089 0004904 101.2901 258.8654 15.33371075107586,6843.9,93.911,469.121,462.409,0.0
52997.0,STARLINK-4301,PAYLOAD,2024-06-09 22:28:39,15.33402695,0.0004861,53.2422,29.8582,103.4715,256.683,0.00053173,0.00017077,0.0,0 STARLINK-4301,1 52997U 22076M   24161.93656631  .00017077  00000-0  53173-3 0  9996,2 52997  53.2422  29.8582 0004861 103.4715 256.6830 15.33402695107259,6843.806,93.909,468.998,462.344,0.0
52997.0,STARLINK-4301,PAYLOAD,2024-06-10 07:51:47,15.33414646,0.0004839,53.242,28.0364,104.5638,255.5902,0.00050928,0.00016345,0.0,0 STARLINK-4301,1 52997U 22076M   24162.32763397  .00016345  00000-0  50928-3 0  9990,2 52997  53.2420  28.0364 0004839 104.5638 255.5902 15.33414646107782,6843.77,93.908,468.947,462.324,0.0
52997.0,STARLINK-4301,PAYLOAD,2024-06-10 21:56:29,15.33434226,0.0004812,53.2421,25.3037,106.5359,253.6173,0.00054059,0.00017386,0.0,0 STARLINK-4301,1 52997U 22076M   24162.91423003  .00017386  00000-0  54059-3 0  9997,2 52997  53.2421  25.3037 0004812 106.5359 253.6173 15.33434226107407,6843.712,93.907,468.87,462.284,0.0
52997.0,STARLINK-4301,PAYLOAD,2024-06-11 07:19:37,15.33446929,0.0004773,53.242,23.4817,107.6076,252.5449,0.00054684,0.00017599,0.0,0 STARLINK-4301,1 52997U 22076M   24163.30528977  .00017599  00000-0  54684-3 0  9997,2 52997  53.2420  23.4817 0004773 107.6076 252.5449 15.33446929107468,6843.674,93.906,468.806,462.273,0.0
52997.0,STARLINK-4301,PAYLOAD,2024-06-12 00:32:00,15.33470846,0.0004707,53.2419,20.141,109.6104,250.5408,0.00053296,0.00017154,0.0,0 STARLINK-4301,1 52997U 22076M   24164.02222374  .00017154  00000-0  53296-3 0  9994,2 52997  53.2419  20.1410 0004707 109.6104 250.5408 15.33470846108043,6843.603,93.905,468.69,462.247,0.0
52997.0,STARLINK-4301,PAYLOAD,2024-06-12 20:52:03,15.335171,0.0004661,53.2426,16.1939,112.6852,247.4645,0.00067136,0.00021752,0.0,0 STARLINK-4301,1 52997U 22076M   24164.86948584  .00021752  00000-0  67136-3 0  9991,2 52997  53.2426  16.1939 0004661 112.6852 247.4645 15.33517100108172,6843.466,93.902,468.52,462.141,0.0
52997.0,STARLINK-4301,PAYLOAD,2024-06-12 23:59:45,15.33522348,0.0004625,53.2428,15.5873,112.6342,247.5151,0.0006292,0.00020362,0.0,0 STARLINK-4301,1 52997U 22076M   24164.99983222  .00020362  00000-0  62920-3 0  9995,2 52997  53.2428  15.5873 0004625 112.6342 247.5151 15.33522348107721,6843.45,93.901,468.48,462.15,0.0
52997.0,STARLINK-4301,PAYLOAD,2024-06-13 20:19:47,15.33545526,0.0004499,53.243,11.6378,113.7969,246.3506,0.00051981,0.00016761,0.0,0 STARLINK-4301,1 52997U 22076M   24165.84707826  .00016761  00000-0  51981-3 0  9997,2 52997  53.2430  11.6378 0004499 113.7969 246.3506 15.33545526107855,6843.381,93.9,468.325,462.167,0.0
52997.0,STARLINK-4301,PAYLOAD,2024-06-14 07:16:43,15.33556722,0.0004534,53.2436,9.5126,114.7005,245.4471,0.00047064,0.00015142,0.0,0 STARLINK-4301,1 52997U 22076M   24166.30328211  .00015142  00000-0  47064-3 0  9995,2 52997  53.2436   9.5126 0004534 114.7005 245.4471 15.33556722107929,6843.348,93.899,468.316,462.11,0.0
52997.0,STARLINK-4301,PAYLOAD,2024-06-14 19:47:30,15.33570913,0.0004516,53.2436,7.0833,115.507,244.6401,0.00044315,0.0001424,0.0,0 STARLINK-4301,1 52997U 22076M   24166.82465319  .00014240  00000-0  44315-3 0  9997,2 52997  53.2436   7.0833 0004516 115.5070 244.6401 15.33570913108000,6843.306,93.898,468.261,462.08,0.0
52997.0,STARLINK-4301,PAYLOAD,2024-06-15 06:44:25,15.33584842,0.0004492,53.2438,4.9575,116.1705,243.976,0.00045079,0.00014499,0.0,0 STARLINK-4301,1 52997U 22076M   24167.28084812  .00014499  00000-0  45079-3 0  9997,2 52997  53.2438   4.9575 0004492 116.1705 243.9760 15.33584842108079,6843.264,93.898,468.203,462.055,0.0
52997.0,STARLINK-4301,PAYLOAD,2024-06-15 20:49:01,15.3360526,0.000443,53.2438,2.2244,117.1262,243.0193,0.00051255,0.00016553,0.0,0 STARLINK-4301,1 52997U 22076M   24167.86737835  .00016553  00000-0  51255-3 0  9997,2 52997  53.2438   2.2244 0004430 117.1262 243.0193 15.33605260108163,6843.203,93.896,468.1,462.037,0.0
52997.0,STARLINK-4301,PAYLOAD,2024-06-16 12:27:27,15.33622159,0.0004428,53.2438,359.1873,118.5702,241.5747,0.0004339,0.00013958,0.0,0 STARLINK-4301,1 52997U 22076M   24168.51907080  .00013958  00000-0  43390-3 0  9998,2 52997  53.2438 359.1873 0004428 118.5702 241.5747 15.33622159108261,6843.153,93.895,468.048,461.988,0.0
